ONEWEB-0249             
1 48967U 21060A   26027.15369370  .00007905  00000+0  20616-1 0  9990
2 48967  87.9064 256.8499 0002433 131.7055 228.4284 13.16629103221059
ONEWEB-0250             
1 48968U 21060B   26027.10688447  .00000029  00000+0  35439-4 0  9997
2 48968  87.9011 255.0816 0001830 120.8119 239.3197 13.25824833221529
ONEWEB-0252             
1 48970U 21060D   26027.10940195  .00000014  00000+0  39564-5 0  9999
2 48970  87.9013 256.8582 0001503  73.2718 286.8578 13.16594580221091
ONEWEB-0253             
1 48971U 21060E   26027.09831813  .00000071  00000+0  15105-3 0  9990
2 48971  87.9015 256.8656 0001312  82.1529 277.9751 13.16593655221022
ONEWEB-0254             
1 48972U 21060F   26027.10781234  .00000047  00000+0  89935-4 0  9990
2 48972  87.9016 256.8571 0001183  89.7209 270.4057 13.16593526221028
ONEWEB-0255             
1 48973U 21060G   26027.14581620 -.00000096  00000+0 -28353-3 0  9994
2 48973  87.9011 256.8619 0001233  90.0785 270.0488 13.16593413221105
ONEWEB-0256             
1 48974U 21060H   26027.17194272  .00000045  00000+0  84772-4 0  9991
2 48974  87.9007 256.8622 0001596  78.4823 281.6487 13.16594579221077
ONEWEB-0257             
1 48975U 21060J   26027.12839560  .00000009  00000+0 -10708-4 0  9992
2 48975  87.9014 256.8540 0001351  80.2559 279.8725 13.16593327221020
